[
    {
        "Altitude(m)": 617719.7209957137,
        "Argument of Periapsis(deg)": 0.0,
        "Eccentricity": 0.0,
        "Inclination(deg)": 60.0,
        "Latitude(deg)": -41.10250488815961,
        "Longitude(deg)": 120.09459546360888,
        "Mean Anomaly(deg)": 229.09090000000006,
        "RAAN(deg)": 10.0,
        "Satellite Name": "Test1 58",
        "Satellite Number": 58,
        "Semi-Major Axis(m)": 6980739.136638005,
        "Time(s)": 0
    },
    {
        "Altitude(m)": 617911.2569912745,
        "Argument of Periapsis(deg)": 0.00010418945913296404,
        "Eccentricity": 0.0,
        "Inclination(deg)": 60.0,
        "Latitude(deg)": -41.56569740624056,
        "Longitude(deg)": 120.59900011839504,
        "Mean Anomaly(deg)": 229.71100614546188,
        "RAAN(deg)": 9.999579950860259,
        "Satellite Name": "Test1 58",
        "Satellite Number": 58,
        "Semi-Major Axis(m)": 6980739.136638005,
        "Time(s)": 10
    }
]